{
  "norad_id": 64160,
  "name": "STARLINK-34339",
  "history": [
    {
      "epoch": "2026-03-28T20:52:34.014432Z",
      "apogee_km": 550.9470647721555,
      "perigee_km": 548.088991413766,
      "latitude_deg": -2.708014075836586e-05,
      "longitude_deg": 0.9945892973276839,
      "height_km": 552.1956585926924,
      "semi_major_axis_km": 6927.6550280929605,
      "eccentricity": 0.00020628,
      "inclination_deg": 97.6034,
      "raan_deg": 140.4204,
      "arg_perigee_deg": 74.4036,
      "mean_anomaly_deg": 285.7418,
      "mean_motion_rev_day": 15.05647759
    },
    {
      "epoch": "2026-03-29T03:15:21.932064Z",
      "apogee_km": 550.9577574430523,
      "perigee_km": 548.0439929527447,
      "latitude_deg": 3.100743992225919e-05,
      "longitude_deg": -94.70509154602107,
      "height_km": 552.1298170726693,
      "semi_major_axis_km": 6927.637875197898,
      "eccentricity": 0.0002103,
      "inclination_deg": 97.6034,
      "raan_deg": 140.6824,
      "arg_perigee_deg": 72.7161,
      "mean_anomaly_deg": 287.4296,
      "mean_motion_rev_day": 15.05653351
    },
    {
      "epoch": "2026-03-30T03:10:51.329856Z",
      "apogee_km": 550.8565447309647,
      "perigee_km": 548.0633376442784,
      "latitude_deg": 2.178710438290651e-05,
      "longitude_deg": -93.57723849561256,
      "height_km": 552.1187052826433,
      "semi_major_axis_km": 6927.596941187621,
      "eccentricity": 0.0002016,
      "inclination_deg": 97.6031,
      "raan_deg": 141.6653,
      "arg_perigee_deg": 73.2199,
      "mean_anomaly_deg": 286.9249,
      "mean_motion_rev_day": 15.05666696
    },
    {
      "epoch": "2026-03-30T03:10:51.330720Z",
      "apogee_km": 550.8564061790257,
      "perigee_km": 548.0634761962165,
      "latitude_deg": 2.3975069856510604e-05,
      "longitude_deg": -93.57724239592753,
      "height_km": 552.1187452909905,
      "semi_major_axis_km": 6927.596941187621,
      "eccentricity": 0.00020158,
      "inclination_deg": 97.6031,
      "raan_deg": 141.6653,
      "arg_perigee_deg": 73.2199,
      "mean_anomaly_deg": 286.9249,
      "mean_motion_rev_day": 15.05666696
    },
    {
      "epoch": "2026-03-30T14:20:44.954592Z",
      "apogee_km": 550.7246826939863,
      "perigee_km": 548.1912612127426,
      "latitude_deg": -3.179413597319424e-05,
      "longitude_deg": 98.94950677921827,
      "height_km": 552.1564904987677,
      "semi_major_axis_km": 6927.594971953364,
      "eccentricity": 0.00018285,
      "inclination_deg": 97.6031,
      "raan_deg": 142.124,
      "arg_perigee_deg": 73.3109,
      "mean_anomaly_deg": 286.8318,
      "mean_motion_rev_day": 15.05667338
    },
    {
      "epoch": "2026-03-30T20:43:32.733984Z",
      "apogee_km": 550.7171803196316,
      "perigee_km": 548.1965060238545,
      "latitude_deg": 9.139927304182504e-05,
      "longitude_deg": 3.250195159758584,
      "height_km": 552.1526920792862,
      "semi_major_axis_km": 6927.593843171742,
      "eccentricity": 0.00018193,
      "inclination_deg": 97.6028,
      "raan_deg": 142.3858,
      "arg_perigee_deg": 73.0968,
      "mean_anomaly_deg": 287.0459,
      "mean_motion_rev_day": 15.05667706
    },
    {
      "epoch": "2026-03-31T20:39:02.147328Z",
      "apogee_km": 550.4510705998064,
      "perigee_km": 548.4808603164302,
      "latitude_deg": 4.6540086431461026e-05,
      "longitude_deg": 4.377588737355382,
      "height_km": 552.2628089001828,
      "semi_major_axis_km": 6927.602965458118,
      "eccentricity": 0.0001422,
      "inclination_deg": 97.6021,
      "raan_deg": 143.3683,
      "arg_perigee_deg": 74.3265,
      "mean_anomaly_deg": 285.8119,
      "mean_motion_rev_day": 15.05664732
    },
    {
      "epoch": "2026-04-01T20:34:32.117952Z",
      "apogee_km": 550.6748310901903,
      "perigee_km": 548.3055825854517,
      "latitude_deg": -4.6125743869771e-05,
      "longitude_deg": 5.502760189303089,
      "height_km": 552.2589443849117,
      "semi_major_axis_km": 6927.627206837821,
      "eccentricity": 0.000171,
      "inclination_deg": 97.602,
      "raan_deg": 144.3509,
      "arg_perigee_deg": 75.6426,
      "mean_anomaly_deg": 284.499,
      "mean_motion_rev_day": 15.05656829
    },
    {
      "epoch": "2026-04-02T20:30:02.041920Z",
      "apogee_km": 550.7793446442101,
      "perigee_km": 548.1828733769544,
      "latitude_deg": -2.2733110950237137e-05,
      "longitude_deg": 6.627010687711139,
      "height_km": 552.1494769641464,
      "semi_major_axis_km": 6927.618109010582,
      "eccentricity": 0.0001874,
      "inclination_deg": 97.6014,
      "raan_deg": 145.3324,
      "arg_perigee_deg": 72.3376,
      "mean_anomaly_deg": 287.8055,
      "mean_motion_rev_day": 15.05659795
    },
    {
      "epoch": "2026-04-02T20:30:02.042784Z",
      "apogee_km": 550.7794139203925,
      "perigee_km": 548.182804100773,
      "latitude_deg": -2.382186030797093e-05,
      "longitude_deg": 6.62700722235687,
      "height_km": 552.1494559407862,
      "semi_major_axis_km": 6927.618109010582,
      "eccentricity": 0.00018741,
      "inclination_deg": 97.6014,
      "raan_deg": 145.3324,
      "arg_perigee_deg": 72.3376,
      "mean_anomaly_deg": 287.8055,
      "mean_motion_rev_day": 15.05659795
    },
    {
      "epoch": "2026-04-03T17:14:08.024352Z",
      "apogee_km": 550.4187144288526,
      "perigee_km": 548.5925878260159,
      "latitude_deg": 5.7337379691176466e-05,
      "longitude_deg": 55.602917317845915,
      "height_km": 552.3300861672252,
      "semi_major_axis_km": 6927.642651127434,
      "eccentricity": 0.0001318,
      "inclination_deg": 97.6011,
      "raan_deg": 146.1848,
      "arg_perigee_deg": 74.8441,
      "mean_anomaly_deg": 285.2932,
      "mean_motion_rev_day": 15.05651794
    }
  ]
}